{
  "type": "FeatureCollection",
  "features": [
    {
      "type": "Feature",
      "properties": {
        "norad_id": 43823,
        "name": "GEO-KOMPSAT-2A",
        "group": "weather",
        "lat": 0.020379874680206165,
        "lon": 111.77243766761036,
        "alt_km": 35786.363785454036,
        "timestamp": "2025-12-08T17:43:04.536031+00:00",
        "meta_object_name": "GEO-KOMPSAT-2A",
        "meta_object_id": "2018-100A",
        "meta_epoch": "2025-12-08T07:21:58.089312",
        "meta_mean_motion": 1.0027093,
        "meta_eccentricity": 1.878e-05,
        "meta_inclination": 0.0574,
        "meta_ra_of_asc_node": 113.9423,
        "meta_arg_of_pericenter": 86.1343,
        "meta_mean_anomaly": 116.0018,
        "meta_ephemeris_type": 0,
        "meta_classification_type": "U",
        "meta_norad_cat_id": 43823,
        "meta_element_set_no": 999,
        "meta_rev_at_epoch": 2571,
        "meta_bstar": 0,
        "meta_mean_motion_dot": -3.41e-06,
        "meta_mean_motion_ddot": 0,
        "tle_line1": "1 43823U 18100A   25342.30692233 -.00000341  00000+0  00000+0 0  9991",
        "tle_line2": "2 43823   0.0574 113.9423 0000187  86.1343 116.0018  1.00270930 25716"
      },
      "geometry": {
        "type": "Point",
        "coordinates": [
          111.77243766761036,
          0.020379874680206165
        ]
      }
    },
    {
      "type": "Feature",
      "properties": {
        "norad_id": 44387,
        "name": "METEOR-M2 2",
        "group": "weather",
        "lat": 28.616165454214457,
        "lon": -42.48437677389765,
        "alt_km": 809.9967977733168,
        "timestamp": "2025-12-08T17:43:04.536043+00:00",
        "meta_object_name": "METEOR-M2 2",
        "meta_object_id": "2019-038A",
        "meta_epoch": "2025-12-08T05:46:48.679680",
        "meta_mean_motion": 14.24288832,
        "meta_eccentricity": 0.00011394,
        "meta_inclination": 98.8969,
        "meta_ra_of_asc_node": 321.9147,
        "meta_arg_of_pericenter": 156.711,
        "meta_mean_anomaly": 203.412,
        "meta_ephemeris_type": 0,
        "meta_classification_type": "U",
        "meta_norad_cat_id": 44387,
        "meta_element_set_no": 999,
        "meta_rev_at_epoch": 33411,
        "meta_bstar": 0.00017227507,
        "meta_mean_motion_dot": 3.52e-06,
        "meta_mean_motion_ddot": 0,
        "tle_line1": "1 44387U 19038A   25342.24084120  .00000352  00000+0  17228-3 0  9996",
        "tle_line2": "2 44387  98.8969 321.9147 0001139 156.7110 203.4120 14.24288832334115"
      },
      "geometry": {
        "type": "Point",
        "coordinates": [
          -42.48437677389765,
          28.616165454214457
        ]
      }
    },
    {
      "type": "Feature",
      "properties": {
        "norad_id": 47719,
        "name": "ARKTIKA-M 1",
        "group": "weather",
        "lat": 59.587187322870705,
        "lon": 144.00538466431334,
        "alt_km": 36050.32399919891,
        "timestamp": "2025-12-08T17:43:04.536057+00:00",
        "meta_object_name": "ARKTIKA-M 1",
        "meta_object_id": "2021-016A",
        "meta_epoch": "2025-12-01T02:41:41.634816",
        "meta_mean_motion": 2.00613156,
        "meta_eccentricity": 0.71974708,
        "meta_inclination": 63.1756,
        "meta_ra_of_asc_node": 85.6045,
        "meta_arg_of_pericenter": 269.084,
        "meta_mean_anomaly": 15.7076,
        "meta_ephemeris_type": 0,
        "meta_classification_type": "U",
        "meta_norad_cat_id": 47719,
        "meta_element_set_no": 999,
        "meta_rev_at_epoch": 3481,
        "meta_bstar": 0,
        "meta_mean_motion_dot": -1.2e-07,
        "meta_mean_motion_ddot": 0,
        "tle_line1": "1 47719U 21016A   25335.11228744 -.00000012  00000+0  00000+0 0  9997",
        "tle_line2": "2 47719  63.1756  85.6045 7197470 269.0840  15.7076  2.00613156 34816"
      },
      "geometry": {
        "type": "Point",
        "coordinates": [
          144.00538466431334,
          59.587187322870705
        ]
      }
    },
    {
      "type": "Feature",
      "properties": {
        "norad_id": 49008,
        "name": "FENGYUN 3E",
        "group": "weather",
        "lat": 50.99886450733882,
        "lon": -27.653407656022615,
        "alt_km": 821.2303084180267,
        "timestamp": "2025-12-08T17:43:04.536072+00:00",
        "meta_object_name": "FENGYUN 3E",
        "meta_object_id": "2021-062A",
        "meta_epoch": "2025-12-08T05:38:09.487392",
        "meta_mean_motion": 14.19879139,
        "meta_eccentricity": 5.832e-05,
        "meta_inclination": 98.7476,
        "meta_ra_of_asc_node": 342.8095,
        "meta_arg_of_pericenter": 292.904,
        "meta_mean_anomaly": 67.2074,
        "meta_ephemeris_type": 0,
        "meta_classification_type": "U",
        "meta_norad_cat_id": 49008,
        "meta_element_set_no": 999,
        "meta_rev_at_epoch": 22948,
        "meta_bstar": 5.132356e-05,
        "meta_mean_motion_dot": 6.5e-07,
        "meta_mean_motion_ddot": 0,
        "tle_line1": "1 49008U 21062A   25342.23483203  .00000065  00000+0  51324-4 0  9992",
        "tle_line2": "2 49008  98.7476 342.8095 0000583 292.9040  67.2074 14.19879139229480"
      },
      "geometry": {
        "type": "Point",
        "coordinates": [
          -27.653407656022615,
          50.99886450733882
        ]
      }
    },
    {
      "type": "Feature",
      "properties": {
        "norad_id": 51850,
        "name": "GOES 18",
        "group": "weather",
        "lat": -0.0033470525083445514,
        "lon": -153.50170859286277,
        "alt_km": 35786.4549383986,
        "timestamp": "2025-12-08T17:43:04.536084+00:00",
        "meta_object_name": "GOES 18",
        "meta_object_id": "2022-021A",
        "meta_epoch": "2025-12-08T02:40:45.348672",
        "meta_mean_motion": 1.00271247,
        "meta_eccentricity": 7.644e-05,
        "meta_inclination": 0.0084,
        "meta_ra_of_asc_node": 76.3845,
        "meta_arg_of_pericenter": 225.4198,
        "meta_mean_anomaly": 38.5104,
        "meta_ephemeris_type": 0,
        "meta_classification_type": "U",
        "meta_norad_cat_id": 51850,
        "meta_element_set_no": 999,
        "meta_rev_at_epoch": 467,
        "meta_bstar": 0,
        "meta_mean_motion_dot": 9.9e-07,
        "meta_mean_motion_ddot": 0,
        "tle_line1": "1 51850U 22021A   25342.11163598  .00000099  00000+0  00000+0 0  9992",
        "tle_line2": "2 51850   0.0084  76.3845 0000764 225.4198  38.5104  1.00271247  4676"
      },
      "geometry": {
        "type": "Point",
        "coordinates": [
          -153.50170859286277,
          -0.0033470525083445514
        ]
      }
    },
    {
      "type": "Feature",
      "properties": {
        "norad_id": 54234,
        "name": "NOAA 21 (JPSS-2)",
        "group": "weather",
        "lat": 62.08784688200458,
        "lon": -97.7963179096712,
        "alt_km": 819.2491368962155,
        "timestamp": "2025-12-08T17:43:04.536096+00:00",
        "meta_object_name": "NOAA 21 (JPSS-2)",
        "meta_object_id": "2022-150A",
        "meta_epoch": "2025-12-08T07:16:13.976256",
        "meta_mean_motion": 14.19522476,
        "meta_eccentricity": 0.00023898,
        "meta_inclination": 98.7456,
        "meta_ra_of_asc_node": 278.6667,
        "meta_arg_of_pericenter": 46.6754,
        "meta_mean_anomaly": 313.4621,
        "meta_ephemeris_type": 0,
        "meta_classification_type": "U",
        "meta_norad_cat_id": 54234,
        "meta_element_set_no": 999,
        "meta_rev_at_epoch": 15946,
        "meta_bstar": 0.00013219787,
        "meta_mean_motion_dot": 2.35e-06,
        "meta_mean_motion_ddot": 0,
        "tle_line1": "1 54234U 22150A   25342.30293954  .00000235  00000+0  13220-3 0  9999",
        "tle_line2": "2 54234  98.7456 278.6667 0002389  46.6754 313.4621 14.19522476159461"
      },
      "geometry": {
        "type": "Point",
        "coordinates": [
          -97.7963179096712,
          62.08784688200458
        ]
      }
    },
    {
      "type": "Feature",
      "properties": {
        "norad_id": 54743,
        "name": "METEOSAT-12 (MTG-I1)",
        "group": "weather",
        "lat": -0.53563739890915,
        "lon": -16.703884987021116,
        "alt_km": 35785.19737449244,
        "timestamp": "2025-12-08T17:43:04.536117+00:00",
        "meta_object_name": "METEOSAT-12 (MTG-I1)",
        "meta_object_id": "2022-170C",
        "meta_epoch": "2025-12-08T06:45:14.433120",
        "meta_mean_motion": 1.00274861,
        "meta_eccentricity": 0.00014895,
        "meta_inclination": 0.7252,
        "meta_ra_of_asc_node": 30.8853,
        "meta_arg_of_pericenter": 223.0145,
        "meta_mean_anomaly": 284.4666,
        "meta_ephemeris_type": 0,
        "meta_classification_type": "U",
        "meta_norad_cat_id": 54743,
        "meta_element_set_no": 999,
        "meta_rev_at_epoch": 1106,
        "meta_bstar": 0,
        "meta_mean_motion_dot": -4e-08,
        "meta_mean_motion_ddot": 0,
        "tle_line1": "1 54743U 22170C   25342.28141705 -.00000004  00000+0  00000+0 0  9992",
        "tle_line2": "2 54743   0.7252  30.8853 0001489 223.0145 284.4666  1.00274861 11060"
      },
      "geometry": {
        "type": "Point",
        "coordinates": [
          -16.703884987021116,
          -0.53563739890915
        ]
      }
    }
  ]
}